start=new Date('2021-11-15T00:00:00.000Z').valueOf();
sats=[{"NORAD_CAT_ID":"48638","CLASSIFICATION_TYPE":"U","BSTAR":"0.00010720000000","TIME_SYSTEM":"UTC","ECCENTRICITY":"0.00014800","OBJECT_TYPE":"PAYLOAD","TLE_LINE1":"1 48638U 21044A   21318.52171366  .00001316  00000-0  10720-3 0  9990","MEAN_ANOMALY":"305.2728","INCLINATION":"53.0568","OBJECT_NAME":"STARLINK-2758","ELEMENT_SET_NO":"999","FILE":"3214995","DECAY_DATE":null,"COUNTRY_CODE":"US","MEAN_ELEMENT_THEORY":"SGP4","PERIAPSIS":"546.181","EPOCH":"2021-11-14T12:31:16.060224","PERIOD":"95.592","LAUNCH_DATE":"2021-05-26","ARG_OF_PERICENTER":"54.8399","REV_AT_EPOCH":"2621","APOAPSIS":"548.231","TLE_LINE2":"2 48638  53.0568 352.3011 0001480  54.8399 305.2728 15.06402371 26211","SITE":"AFETR","REF_FRAME":"TEME","MEAN_MOTION_DDOT":"0.0000000000000","RCS_SIZE":"LARGE","OBJECT_ID":"2021-044A","MEAN_MOTION":"15.06402371","EPHEMERIS_TYPE":"0","CENTER_NAME":"EARTH","RA_OF_ASC_NODE":"352.3011","MEAN_MOTION_DOT":"0.00001316","GP_ID":"189747934","SEMIMAJOR_AXIS":"6925.341"},{"PERIOD":"95.592","LAUNCH_DATE":"2021-05-26","ARG_OF_PERICENTER":"74.9293","REV_AT_EPOCH":"2621","APOAPSIS":"548.194","TLE_LINE2":"2 48639  53.0556 352.3620 0001406  74.9293 285.1852 15.06397714 26217","SITE":"AFETR","REF_FRAME":"TEME","MEAN_MOTION_DDOT":"0.0000000000000","RCS_SIZE":"LARGE","OBJECT_ID":"2021-044B","MEAN_MOTION":"15.06397714","EPHEMERIS_TYPE":"0","CENTER_NAME":"EARTH","MEAN_MOTION_DOT":"0.00000083","RA_OF_ASC_NODE":"352.3620","GP_ID":"189748168","SEMIMAJOR_AXIS":"6925.356","NORAD_CAT_ID":"48639","CLASSIFICATION_TYPE":"U","BSTAR":"0.00002449900000","TIME_SYSTEM":"UTC","OBJECT_TYPE":"PAYLOAD","ECCENTRICITY":"0.00014060","TLE_LINE1":"1 48639U 21044B   21318.50697460  .00000083  00000-0  24499-4 0  9996","INCLINATION":"53.0556","MEAN_ANOMALY":"285.1852","OBJECT_NAME":"STARLINK-2739","ELEMENT_SET_NO":"999","FILE":"3214995","DECAY_DATE":null,"MEAN_ELEMENT_THEORY":"SGP4","COUNTRY_CODE":"US","PERIAPSIS":"546.247","EPOCH":"2021-11-14T12:10:02.605440"},{"PERIOD":"95.593","LAUNCH_DATE":"2021-05-26","ARG_OF_PERICENTER":"57.2142","REV_AT_EPOCH":"2620","APOAPSIS":"548.152","TLE_LINE2":"2 48640  53.0570 352.5172 0001321  57.2142 302.8974 15.06392245 26207","SITE":"AFETR","MEAN_MOTION_DDOT":"0.0000000000000","REF_FRAME":"TEME","MEAN_MOTION":"15.06392245","OBJECT_ID":"2021-044C","RCS_SIZE":"LARGE","EPHEMERIS_TYPE":"0","CENTER_NAME":"EARTH","GP_ID":"189747698","MEAN_MOTION_DOT":"0.00002550","RA_OF_ASC_NODE":"352.5172","SEMIMAJOR_AXIS":"6925.372","NORAD_CAT_ID":"48640","BSTAR":"0.00019004000000","CLASSIFICATION_TYPE":"U","TIME_SYSTEM":"UTC","ECCENTRICITY":"0.00013210","OBJECT_TYPE":"PAYLOAD","TLE_LINE1":"1 48640U 21044C   21318.47382385  .00002550  00000-0  19004-3 0  9997","MEAN_ANOMALY":"302.8974","INCLINATION":"53.0570","OBJECT_NAME":"STARLINK-2736","ELEMENT_SET_NO":"999","DECAY_DATE":null,"FILE":"3214995","COUNTRY_CODE":"US","MEAN_ELEMENT_THEORY":"SGP4","PERIAPSIS":"546.322","EPOCH":"2021-11-14T11:22:18.380640"},{"SEMIMAJOR_AXIS":"6925.369","CENTER_NAME":"EARTH","GP_ID":"189775932","MEAN_MOTION_DOT":"0.00003926","RA_OF_ASC_NODE":"357.0477","MEAN_MOTION":"15.06393415","OBJECT_ID":"2021-044D","RCS_SIZE":"LARGE","EPHEMERIS_TYPE":"0","MEAN_MOTION_DDOT":"0.0000000000000","REF_FRAME":"TEME","SITE":"AFETR","TLE_LINE2":"2 48641  53.0561 357.0477 0001372  72.5752 287.5387 15.06393415 26150","APOAPSIS":"548.184","ARG_OF_PERICENTER":"72.5752","REV_AT_EPOCH":"2615","PERIOD":"95.593","LAUNCH_DATE":"2021-05-26","PERIAPSIS":"546.284","EPOCH":"2021-11-14T13:54:15.576480","DECAY_DATE":null,"FILE":"3215179","COUNTRY_CODE":"US","MEAN_ELEMENT_THEORY":"SGP4","ELEMENT_SET_NO":"999","INCLINATION":"53.0561","MEAN_ANOMALY":"287.5387","OBJECT_NAME":"STARLINK-2754","TLE_LINE1":"1 48641U 21044D   21318.57934695  .00003926  00000-0  28235-3 0  9990","TIME_SYSTEM":"UTC","ECCENTRICITY":"0.00013720","OBJECT_TYPE":"PAYLOAD","NORAD_CAT_ID":"48641","CLASSIFICATION_TYPE":"U","BSTAR":"0.00028235000000"},{"PERIAPSIS":"546.279","EPOCH":"2021-11-14T12:38:34.779552","ELEMENT_SET_NO":"999","FILE":"3214995","DECAY_DATE":null,"COUNTRY_CODE":"US","MEAN_ELEMENT_THEORY":"SGP4","TLE_LINE1":"1 48642U 21044E   21318.52679143 -.00000732  00000-0 -30256-4 0  9991","MEAN_ANOMALY":"292.2015","INCLINATION":"53.0558","OBJECT_NAME":"STARLINK-2646","NORAD_CAT_ID":"48642","BSTAR":"-0.00003025600000","CLASSIFICATION_TYPE":"U","TIME_SYSTEM":"UTC","ECCENTRICITY":"0.00013740","OBJECT_TYPE":"PAYLOAD","CENTER_NAME":"EARTH","RA_OF_ASC_NODE":"357.2733","MEAN_MOTION_DOT":"-0.00000732","GP_ID":"189747581","SEMIMAJOR_AXIS":"6925.366","REF_FRAME":"TEME","MEAN_MOTION_DDOT":"0.0000000000000","RCS_SIZE":"LARGE","OBJECT_ID":"2021-044E","MEAN_MOTION":"15.06394326","EPHEMERIS_TYPE":"0","TLE_LINE2":"2 48642  53.0558 357.2733 0001374  67.9119 292.2015 15.06394326 26143","APOAPSIS":"548.182","SITE":"AFETR","PERIOD":"95.593","LAUNCH_DATE":"2021-05-26","ARG_OF_PERICENTER":"67.9119","REV_AT_EPOCH":"2614"},{"TIME_SYSTEM":"UTC","ECCENTRICITY":"0.00013340","OBJECT_TYPE":"PAYLOAD","NORAD_CAT_ID":"48643","CLASSIFICATION_TYPE":"U","BSTAR":"0.00000094606000","MEAN_ANOMALY":"290.9070","INCLINATION":"53.0562","OBJECT_NAME":"STARLINK-2704","TLE_LINE1":"1 48643U 21044F   21318.44296844 -.00000267  00000-0  94606-6 0  9999","FILE":"3214995","DECAY_DATE":null,"COUNTRY_CODE":"US","MEAN_ELEMENT_THEORY":"SGP4","ELEMENT_SET_NO":"999","PERIAPSIS":"546.320","EPOCH":"2021-11-14T10:37:52.473216","ARG_OF_PERICENTER":"69.2062","REV_AT_EPOCH":"2613","PERIOD":"95.593","LAUNCH_DATE":"2021-05-26","SITE":"AFETR","TLE_LINE2":"2 48643  53.0562 357.6549 0001334  69.2062 290.9070 15.06390066 26138","APOAPSIS":"548.168","RCS_SIZE":"LARGE","OBJECT_ID":"2021-044F","MEAN_MOTION":"15.06390066","EPHEMERIS_TYPE":"0","REF_FRAME":"TEME","MEAN_MOTION_DDOT":"0.0000000000000","SEMIMAJOR_AXIS":"6925.379","CENTER_NAME":"EARTH","RA_OF_ASC_NODE":"357.6549","MEAN_MOTION_DOT":"-0.00000267","GP_ID":"189747816"},{"ARG_OF_PERICENTER":"72.7894","REV_AT_EPOCH":"2620","PERIOD":"95.592","LAUNCH_DATE":"2021-05-26","SITE":"AFETR","APOAPSIS":"548.102","TLE_LINE2":"2 48644  53.0568 355.5901 0001305  72.7894 287.3237 15.06405098 26209","MEAN_MOTION":"15.06405098","OBJECT_ID":"2021-044G","RCS_SIZE":"LARGE","EPHEMERIS_TYPE":"0","MEAN_MOTION_DDOT":"0.0000000000000","REF_FRAME":"TEME","SEMIMAJOR_AXIS":"6925.333","CENTER_NAME":"EARTH","GP_ID":"189775583","MEAN_MOTION_DOT":"0.00006828","RA_OF_ASC_NODE":"355.5901","TIME_SYSTEM":"UTC","OBJECT_TYPE":"PAYLOAD","ECCENTRICITY":"0.00013050","NORAD_CAT_ID":"48644","CLASSIFICATION_TYPE":"U","BSTAR":"0.00047676000000","MEAN_ANOMALY":"287.3237","INCLINATION":"53.0568","OBJECT_NAME":"STARLINK-2695","TLE_LINE1":"1 48644U 21044G   21318.90371353  .00006828  00000-0  47676-3 0  9990","DECAY_DATE":null,"FILE":"3215179","COUNTRY_CODE":"US","MEAN_ELEMENT_THEORY":"SGP4","ELEMENT_SET_NO":"999","PERIAPSIS":"546.294","EPOCH":"2021-11-14T21:41:20.848992"},{"ELEMENT_SET_NO":"999","MEAN_ELEMENT_THEORY":"SGP4","COUNTRY_CODE":"US","DECAY_DATE":null,"FILE":"3215179","EPOCH":"2021-11-14T15:13:51.428928","PERIAPSIS":"546.163","CLASSIFICATION_TYPE":"U","BSTAR":"0.00016876000000","NORAD_CAT_ID":"48645","ECCENTRICITY":"0.00015020","OBJECT_TYPE":"PAYLOAD","TIME_SYSTEM":"UTC","TLE_LINE1":"1 48645U 21044H   21318.63462302  .00002233  00000-0  16876-3 0  9990","OBJECT_NAME":"STARLINK-2733","INCLINATION":"53.0573","MEAN_ANOMALY":"286.8302","MEAN_MOTION_DDOT":"0.0000000000000","REF_FRAME":"TEME","EPHEMERIS_TYPE":"0","OBJECT_ID":"2021-044H","MEAN_MOTION":"15.06403320","RCS_SIZE":"LARGE","GP_ID":"189775816","RA_OF_ASC_NODE":"356.7946","MEAN_MOTION_DOT":"0.00002233","CENTER_NAME":"EARTH","SEMIMAJOR_AXIS":"6925.338","LAUNCH_DATE":"2021-05-26","PERIOD":"95.592","REV_AT_EPOCH":"2616","ARG_OF_PERICENTER":"73.2851","APOAPSIS":"548.244","TLE_LINE2":"2 48645  53.0573 356.7946 0001502  73.2851 286.8302 15.06403320 26164","SITE":"AFETR"},{"LAUNCH_DATE":"2021-05-26","PERIOD":"95.592","REV_AT_EPOCH":"2616","ARG_OF_PERICENTER":"54.7800","TLE_LINE2":"2 48646  53.0557 356.8077 0001523  54.7800 305.3331 15.06395719 26165","APOAPSIS":"548.281","SITE":"AFETR","MEAN_MOTION_DDOT":"0.0000000000000","REF_FRAME":"TEME","EPHEMERIS_TYPE":"0","OBJECT_ID":"2021-044J","MEAN_MOTION":"15.06395719","RCS_SIZE":"LARGE","GP_ID":"189775466","MEAN_MOTION_DOT":"0.00001855","RA_OF_ASC_NODE":"356.8077","CENTER_NAME":"EARTH","SEMIMAJOR_AXIS":"6925.362","BSTAR":"0.00014343000000","CLASSIFICATION_TYPE":"U","NORAD_CAT_ID":"48646","OBJECT_TYPE":"PAYLOAD","ECCENTRICITY":"0.00015230","TIME_SYSTEM":"UTC","TLE_LINE1":"1 48646U 21044J   21318.63093858  .00001855  00000-0  14343-3 0  9993","OBJECT_NAME":"STARLINK-2732","MEAN_ANOMALY":"305.3331","INCLINATION":"53.0557","ELEMENT_SET_NO":"999","COUNTRY_CODE":"US","MEAN_ELEMENT_THEORY":"SGP4","DECAY_DATE":null,"FILE":"3215179","EPOCH":"2021-11-14T15:08:33.093312","PERIAPSIS":"546.172"},{"ARG_OF_PERICENTER":"65.0989","REV_AT_EPOCH":"2620","PERIOD":"95.593","LAUNCH_DATE":"2021-05-26","SITE":"AFETR","TLE_LINE2":"2 48647  53.0566 355.6432 0001473  65.0989 295.0153 15.06392737 26204","APOAPSIS":"548.256","OBJECT_ID":"2021-044K","MEAN_MOTION":"15.06392737","RCS_SIZE":"LARGE","EPHEMERIS_TYPE":"0","MEAN_MOTION_DDOT":"0.0000000000000","REF_FRAME":"TEME","SEMIMAJOR_AXIS":"6925.371","CENTER_NAME":"EARTH","GP_ID":"189775350","MEAN_MOTION_DOT":"0.00001659","RA_OF_ASC_NODE":"355.6432","TIME_SYSTEM":"UTC","OBJECT_TYPE":"PAYLOAD","ECCENTRICITY":"0.00014730","NORAD_CAT_ID":"48647","BSTAR":"0.00013025000000","CLASSIFICATION_TYPE":"U","MEAN_ANOMALY":"295.0153","INCLINATION":"53.0566","OBJECT_NAME":"STARLINK-2691","TLE_LINE1":"1 48647U 21044K   21318.89264507  .00001659  00000-0  13025-3 0  9991","DECAY_DATE":null,"FILE":"3215179","MEAN_ELEMENT_THEORY":"SGP4","COUNTRY_CODE":"US","ELEMENT_SET_NO":"999","PERIAPSIS":"546.216","EPOCH":"2021-11-14T21:25:24.534048"}];
